#aV2013  9 14  0  0  0.00000000     288 DD+AD WGS84 FIT  NGA
## 1757 518400.00000000   300.00000000 56549 0.0000000000000
+   31     1  2  3  4  5  6  7  8  9 10 11 12 13 14 15 16 17
+         18 19 20 21 22 23 24 25 26 27 28 29 31 32  0  0  0
+          0  0  0  0  0  0  0  0  0  0  0  0  0  0  0  0  0
+          0  0  0  0  0  0  0  0  0  0  0  0  0  0  0  0  0
+          0  0  0  0  0  0  0  0  0  0  0  0  0  0  0  0  0
++         2  2  2  2  2  2  2  2  2  2  2  2  2  2  2  2  2
++         2  2  2  2  2  2  2  2  2  2  2  2  2  2  2  0  0
++         0  0  0  0  0  0  0  0  0  0  0  0  0  0  0  0  0
++         0  0  0  0  0  0  0  0  0  0  0  0  0  0  0  0  0
++         0  0  0  0  0  0  0  0  0  0  0  0  0  0  0  0  0
%c cc cc ccc ccc cccc cccc cccc cccc ccccc ccccc ccccc ccccc
%c cc cc ccc ccc cccc cccc cccc cccc ccccc ccccc ccccc ccccc
%f  0.0000000  0.000000000  0.00000000000  0.000000000000000
%f  0.0000000  0.000000000  0.00000000000  0.000000000000000
%i    0    0    0    0      0      0      0      0         0
%i    0    0    0    0      0      0      0      0         0
/*      NGA, ST. LOUIS,MO.                                  
/*   EPHEMERIS COMPUTED FROM  1 DAYS OF DATA
/*   EPOCHA SMOOTHER  
/* CCCCCCCCCCCCCCCCCCCCCCCCCCCCCCCCCCCCCCCCCCCCCCCCCCCCCCCCC
*  2013  9 14  3 50  0.00000000                                                 
P  1 -13550.422642  19586.607174  11619.148635     74.505842                    
V  1   1385.000076 -14974.867396  26896.877860      0.041371                    
P  2  14881.911278   4691.736924 -21277.845854    451.222927                    
V  2  -6301.212543  26896.419102   1004.339657      0.017841                    
P  3 -22755.524120  -5565.872649  12158.786648    259.216250                    
V  3 -11355.206287 -12024.767829 -25445.857857      0.050724                    
P  4   9441.102744  17045.769346 -18226.545116      0.609875                    
V  4  -7508.465271  21535.690015  16786.364597      0.006315                    
P  5  25201.803205   -594.584799  -8634.031543   -399.633849                    
V  5  -9740.202871   5648.063480 -28762.636071      0.000924                    
P  6 -22631.227398 -11814.230237   8066.351494     52.702433                    
V  6  -5763.306392  -8750.363298 -28828.079906      0.190542                    
P  7  -5350.889330  25695.812043   2744.081748    258.392746                    
V  7  -3453.538229   2599.034848 -32031.900576      0.042210                    
P  8    766.788660  22491.092207  13718.827982      8.445585                    
V  8  -7834.756520  15613.925589 -25982.659728      0.002563                    
P  9   2431.381125  23088.604085  12252.612545    268.305885                    
V  9  -6033.299915  15402.306210 -26798.073864      0.027472                    
P 10  13689.042528  11500.016029 -20067.904072    -94.389615                    
V 10 -23717.992937   7187.711380 -11826.294751     -0.013782                    
P 11 -13705.488885  13589.014153  17686.958166   -419.519946                    
V 11  -3872.884938 -23610.200109  15008.353378     -0.034236                    
P 12  22850.881535 -10818.687940  -7837.877929    156.230906                    
V 12  10124.544757   -303.684582  30315.346659      0.021940                    
P 13   -786.304950  18834.751969 -18781.461527     80.177579                    
V 13 -15939.141353 -17417.704992 -17054.517671     -0.037742                    
P 14 -15224.739571 -21526.210280   4032.464663    215.820929                    
V 14   4875.812978   2140.013867  31377.599735     -0.008842                    
P 15  15912.984867  -5707.629144  20510.049192   -136.989655                    
V 15  18558.262149  18417.196042  -8998.134117     -0.018566                    
P 16 -25260.727494   -385.805281  -8767.099962   -246.754755                    
V 16  10364.747560  -3907.897927 -29471.603967      0.007840                    
P 17  14596.599541  21603.772556   5919.064694    -21.111725                    
V 17  -6597.159386  -3655.056903  30539.903147     -0.037711                    
P 18   3305.945915 -16931.465361  20544.277783    273.988099                    
V 18  24759.437152  -5622.581750  -9147.092016      0.020059                    
P 19 -17891.331670    -35.974848  19652.160636   -403.993449                    
V 19 -15389.698128 -19806.087542 -13548.048824     -0.028013                    
P 20 -18675.398270  15214.885502 -11280.942887    122.293927                    
V 20 -14469.846725   1408.501807  26339.252162      0.026016                    
P 21   1760.345365 -25596.861401   6316.818562   -318.573974                    
V 21   5630.236285  -6223.673503 -30027.585361     -0.019004                    
P 22  -9959.808276 -13524.965292  20799.883321    184.742013                    
V 22  24925.992894  -7700.086315   6849.228594      0.018250                    
P 23  -9876.751904  11749.107323 -21569.109320     48.391360                    
V 23 -19707.664583 -19393.021069  -1932.908051     -0.034655                    
P 24  14792.539168 -16349.233647  14767.550152    -13.706344                    
V 24  -2483.857158  18748.509780  23280.483958     -0.007146                    
P 25  11810.504358 -15856.127125 -17748.361350    147.016919                    
V 25  21975.983047  -4677.670073  18959.060308      0.041771                    
P 26  20309.613053  10186.864709  13373.824263    189.077009                    
V 26  10137.154536  14865.949663 -25199.482252      0.182932                    
P 27 -21703.518631  -9559.113895  11960.895162    -36.265683                    
V 27  -9210.697315 -12320.109423 -26522.618869     -0.045557                    
P 28   5620.252148  14042.625723  22432.226813    292.382300                    
V 28 -26374.357864   5723.422327   2939.178663      0.030728                    
P 29   2854.343041 -17253.733237 -19960.552843    470.489553                    
V 29  17962.871411  17997.419573 -12923.729278      0.031103                    
P 31  -8862.587228 -15727.313913 -19210.027321    325.808272                    
V 31   8087.881056 -23480.142982  15630.476934      0.008713                    
P 32 -25016.669077   7166.482494  -3475.282679   -548.883182                    
V 32  -5210.328923  -2732.545848  31415.814826      0.027158                    
EOF
